ONEWEB-0593             
1 54659U 22166T   23334.32928620  .00000700  00000+0  16630-2 0  9997
2 54659  87.9257  69.0875 0001816  87.9289 272.2053 13.21823402 49171
ONEWEB-0594             
1 54660U 22166U   23334.80238107 -.00002305  00000+0 -56132-2 0  9992
2 54660  87.9245  68.9906 0001744  77.2137 282.9191 13.21840720 49248
ONEWEB-0595             
1 54661U 22166V   23333.79625141 -.00000035  00000+0 -11579-3 0  9993
2 54661  87.9253  69.1820 0001759 113.8203 246.3116 13.21828293 49098
ONEWEB-0596             
1 54662U 22166W   23334.29932614  .00000081  00000+0  16368-3 0  9996
2 54662  87.9258  69.0837 0002045  94.2692 265.8676 13.21825752 49166
ONEWEB-0597             
1 54663U 22166X   23334.28039877 -.00000059  00000+0 -17529-3 0  9992
2 54663  87.9253  69.0878 0001829  83.1791 276.9551 13.21828496 49166
ONEWEB-0600             
1 54664U 22166Y   23334.33875123  .00000044  00000+0  74869-4 0  9994
2 54664  87.9255  69.1283 0001635  92.8920 267.2401 13.21826550 49140
ONEWEB-0601             
1 54665U 22166Z   23334.33087539  .00000086  00000+0  17705-3 0  9992
2 54665  87.9257  69.0791 0002184  99.7981 260.3400 13.21828498 49325
ONEWEB-0602             
1 54666U 22166AA  23334.82604264  .00000022  00000+0  20655-4 0  9996
2 54666  87.9256  68.9864 0001768  91.5482 268.5855 13.21826483 49244
